WORLDVIEW-3 (WV-3)      
1 40115U 14048A   26066.14736404  .00001168  00000+0  14386-3 0  9997
2 40115  97.8638 142.3739 0000312   8.2132 351.9088 14.84826993626760
GAOFEN-2                
1 40118U 14049A   26066.21266537  .00001217  00000+0  16485-3 0  9991
2 40118  98.0227 130.4733 0006892 193.3435 166.7596 14.80768318624141
YAOGAN-21               
1 40143U 14053A   26066.17187977  .00005480  00000+0  22288-3 0  9993
2 40143  97.1619 110.8222 0010204  94.4940 265.7464 15.24875975639409
YAOGAN-22               
1 40275U 14063A   26066.04904895 -.00000015  00000+0  84698-4 0  9996
2 40275 100.7532 215.6922 0006679  63.6438 296.5358 13.15526880546386
ASNARO                  
1 40298U 14070A   26066.22337581  .00015284  00000+0  71695-3 0  9996
2 40298  97.3517 145.0511 0007287 150.2498 209.9152 15.19728564628526
YAOGAN-24               
1 40310U 14072A   26066.20290037  .00001187  00000+0  17900-3 0  9991
2 40310  98.1305 202.7806 0012252 226.8684 133.1501 14.76223006608671
CBERS 4                 
1 40336U 14079A   26066.20379655  .00000098  00000+0  48844-4 0  9992
2 40336  98.3485 126.2958 0000685  58.9207 301.2047 14.35412302589327
YAOGAN-26               
1 40362U 14088A   26066.20875706  .00033845  00000+0  76491-3 0  9993
2 40362  97.0670  69.1068 0007094  72.5444 287.6580 15.43077267621953
SMAP                    
1 40376U 15003A   26066.13117725  .00000686  00000+0  14190-3 0  9993
2 40376  98.1313  74.6555 0001328 112.4520 247.6823 14.63334773592692
KOMPSAT-3A              
1 40536U 15014A   26066.13894473  .00027330  00000+0  47404-3 0  9994
2 40536  97.6877  50.4734 0063234 186.7522 173.2883 15.48566551605993
SENTINEL-2A             
1 40697U 15028A   26056.18000490  .00000159  00000+0  76852-4 0  9999
2 40697  98.5024 132.8928 0054368 194.7437 165.2162 14.30192923557712
GAOFEN-8                
1 40701U 15030A   26066.21752146  .00010412  00000+0  24361-3 0  9995
2 40701  97.6932 253.7247 0009335 196.7548 163.3391 15.42299909595713
CARBONITE 1 (CBNT-1)    
1 40718U 15032D   26066.19286200  .00002072  00000+0  25958-3 0  9991
2 40718  97.6462 248.5676 0013162 269.5122  90.4584 14.83202534574226
YAOGAN-27               
1 40878U 15040A   26066.16056894  .00000309  00000+0  92389-3 0  9991
2 40878 100.1104  56.9988 0008922  89.6026 270.6110 13.16067067504242
GAOFEN-9 01             
1 40894U 15047A   26066.16462773  .00001352  00000+0  17279-3 0  9997
2 40894  97.6421 106.4395 0028836 113.7637 246.6606 14.82672923565076
YAOGAN-28               
1 41026U 15064A   26066.20920304  .00010897  00000+0  42632-3 0  9993
2 41026  97.2900 206.7529 0010989 185.1786 174.9341 15.25946420575123
YAOGAN-29               
1 41038U 15069A   26066.16306392  .00000740  00000+0  97810-4 0  9996
2 41038  98.0141  94.5854 0002050  40.8375 319.2992 14.82992136555500
