[{"OBJECT_NAME":"WORLDVIEW-3 (WV-3)","OBJECT_ID":"2014-048A","EPOCH":"2026-03-07T03:32:12.253056","MEAN_MOTION":14.84826993,"ECCENTRICITY":3.12e-5,"INCLINATION":97.8638,"RA_OF_ASC_NODE":142.3739,"ARG_OF_PERICENTER":8.2132,"MEAN_ANOMALY":351.9088,"EPHEMERIS_TYPE":0,"CLASSIFICATION_TYPE":"U","NORAD_CAT_ID":40115,"ELEMENT_SET_NO":999,"REV_AT_EPOCH":62676,"BSTAR":0.00014386,"MEAN_MOTION_DOT":1.168e-5,"MEAN_MOTION_DDOT":0},{"OBJECT_NAME":"GAOFEN-2","OBJECT_ID":"2014-049A","EPOCH":"2026-03-07T05:06:14.287968","MEAN_MOTION":14.80768318,"ECCENTRICITY":0.0006892,"INCLINATION":98.0227,"RA_OF_ASC_NODE":130.4733,"ARG_OF_PERICENTER":193.3435,"MEAN_ANOMALY":166.7596,"EPHEMERIS_TYPE":0,"CLASSIFICATION_TYPE":"U","NORAD_CAT_ID":40118,"ELEMENT_SET_NO":999,"REV_AT_EPOCH":62414,"BSTAR":0.00016485,"MEAN_MOTION_DOT":1.217e-5,"MEAN_MOTION_DDOT":0},{"OBJECT_NAME":"YAOGAN-21","OBJECT_ID":"2014-053A","EPOCH":"2026-03-07T04:07:30.412128","MEAN_MOTION":15.24875975,"ECCENTRICITY":0.0010204,"INCLINATION":97.1619,"RA_OF_ASC_NODE":110.8222,"ARG_OF_PERICENTER":94.494,"MEAN_ANOMALY":265.7464,"EPHEMERIS_TYPE":0,"CLASSIFICATION_TYPE":"U","NORAD_CAT_ID":40143,"ELEMENT_SET_NO":999,"REV_AT_EPOCH":63940,"BSTAR":0.00022288,"MEAN_MOTION_DOT":5.48e-5,"MEAN_MOTION_DDOT":0},{"OBJECT_NAME":"YAOGAN-22","OBJECT_ID":"2014-063A","EPOCH":"2026-03-07T01:10:37.829280","MEAN_MOTION":13.1552688,"ECCENTRICITY":0.0006679,"INCLINATION":100.7532,"RA_OF_ASC_NODE":215.6922,"ARG_OF_PERICENTER":63.6438,"MEAN_ANOMALY":296.5358,"EPHEMERIS_TYPE":0,"CLASSIFICATION_TYPE":"U","NORAD_CAT_ID":40275,"ELEMENT_SET_NO":999,"REV_AT_EPOCH":54638,"BSTAR":8.4698e-5,"MEAN_MOTION_DOT":-1.5e-7,"MEAN_MOTION_DDOT":0},{"OBJECT_NAME":"ASNARO","OBJECT_ID":"2014-070A","EPOCH":"2026-03-07T05:21:39.669984","MEAN_MOTION":15.19728564,"ECCENTRICITY":0.0007287,"INCLINATION":97.3517,"RA_OF_ASC_NODE":145.0511,"ARG_OF_PERICENTER":150.2498,"MEAN_ANOMALY":209.9152,"EPHEMERIS_TYPE":0,"CLASSIFICATION_TYPE":"U","NORAD_CAT_ID":40298,"ELEMENT_SET_NO":999,"REV_AT_EPOCH":62852,"BSTAR":0.00071695,"MEAN_MOTION_DOT":0.00015284,"MEAN_MOTION_DDOT":0},{"OBJECT_NAME":"YAOGAN-24","OBJECT_ID":"2014-072A","EPOCH":"2026-03-07T04:52:10.591968","MEAN_MOTION":14.76223006,"ECCENTRICITY":0.0012252,"INCLINATION":98.1305,"RA_OF_ASC_NODE":202.7806,"ARG_OF_PERICENTER":226.8684,"MEAN_ANOMALY":133.1501,"EPHEMERIS_TYPE":0,"CLASSIFICATION_TYPE":"U","NORAD_CAT_ID":40310,"ELEMENT_SET_NO":999,"REV_AT_EPOCH":60867,"BSTAR":0.000179,"MEAN_MOTION_DOT":1.187e-5,"MEAN_MOTION_DDOT":0},{"OBJECT_NAME":"CBERS 4","OBJECT_ID":"2014-079A","EPOCH":"2026-03-07T04:53:28.021920","MEAN_MOTION":14.35412302,"ECCENTRICITY":6.85e-5,"INCLINATION":98.3485,"RA_OF_ASC_NODE":126.2958,"ARG_OF_PERICENTER":58.9207,"MEAN_ANOMALY":301.2047,"EPHEMERIS_TYPE":0,"CLASSIFICATION_TYPE":"U","NORAD_CAT_ID":40336,"ELEMENT_SET_NO":999,"REV_AT_EPOCH":58932,"BSTAR":4.8844e-5,"MEAN_MOTION_DOT":9.8e-7,"MEAN_MOTION_DDOT":0},{"OBJECT_NAME":"YAOGAN-26","OBJECT_ID":"2014-088A","EPOCH":"2026-03-07T05:00:36.609984","MEAN_MOTION":15.43077267,"ECCENTRICITY":0.0007094,"INCLINATION":97.067,"RA_OF_ASC_NODE":69.1068,"ARG_OF_PERICENTER":72.5444,"MEAN_ANOMALY":287.658,"EPHEMERIS_TYPE":0,"CLASSIFICATION_TYPE":"U","NORAD_CAT_ID":40362,"ELEMENT_SET_NO":999,"REV_AT_EPOCH":62195,"BSTAR":0.00076491,"MEAN_MOTION_DOT":0.00033845,"MEAN_MOTION_DDOT":0},{"OBJECT_NAME":"SMAP","OBJECT_ID":"2015-003A","EPOCH":"2026-03-07T03:08:53.714400","MEAN_MOTION":14.63334773,"ECCENTRICITY":0.0001328,"INCLINATION":98.1313,"RA_OF_ASC_NODE":74.6555,"ARG_OF_PERICENTER":112.452,"MEAN_ANOMALY":247.6823,"EPHEMERIS_TYPE":0,"CLASSIFICATION_TYPE":"U","NORAD_CAT_ID":40376,"ELEMENT_SET_NO":999,"REV_AT_EPOCH":59269,"BSTAR":0.0001419,"MEAN_MOTION_DOT":6.86e-6,"MEAN_MOTION_DDOT":0},{"OBJECT_NAME":"KOMPSAT-3A","OBJECT_ID":"2015-014A","EPOCH":"2026-03-07T03:20:04.824672","MEAN_MOTION":15.48566551,"ECCENTRICITY":0.0063234,"INCLINATION":97.6877,"RA_OF_ASC_NODE":50.4734,"ARG_OF_PERICENTER":186.7522,"MEAN_ANOMALY":173.2883,"EPHEMERIS_TYPE":0,"CLASSIFICATION_TYPE":"U","NORAD_CAT_ID":40536,"ELEMENT_SET_NO":999,"REV_AT_EPOCH":60599,"BSTAR":0.00047404,"MEAN_MOTION_DOT":0.0002733,"MEAN_MOTION_DDOT":0},{"OBJECT_NAME":"SENTINEL-2A","OBJECT_ID":"2015-028A","EPOCH":"2026-02-25T04:19:12.423360","MEAN_MOTION":14.30192923,"ECCENTRICITY":0.00543683,"INCLINATION":98.5024,"RA_OF_ASC_NODE":132.8928,"ARG_OF_PERICENTER":194.7437,"MEAN_ANOMALY":165.2162,"EPHEMERIS_TYPE":0,"CLASSIFICATION_TYPE":"U","NORAD_CAT_ID":40697,"ELEMENT_SET_NO":999,"REV_AT_EPOCH":55771,"BSTAR":7.6852184e-5,"MEAN_MOTION_DOT":1.59e-6,"MEAN_MOTION_DDOT":0},{"OBJECT_NAME":"GAOFEN-8","OBJECT_ID":"2015-030A","EPOCH":"2026-03-07T05:13:13.854144","MEAN_MOTION":15.42299909,"ECCENTRICITY":0.0009335,"INCLINATION":97.6932,"RA_OF_ASC_NODE":253.7247,"ARG_OF_PERICENTER":196.7548,"MEAN_ANOMALY":163.3391,"EPHEMERIS_TYPE":0,"CLASSIFICATION_TYPE":"U","NORAD_CAT_ID":40701,"ELEMENT_SET_NO":999,"REV_AT_EPOCH":59571,"BSTAR":0.00024361,"MEAN_MOTION_DOT":0.00010412,"MEAN_MOTION_DDOT":0},{"OBJECT_NAME":"CARBONITE 1 (CBNT-1)","OBJECT_ID":"2015-032D","EPOCH":"2026-03-07T04:37:43.276800","MEAN_MOTION":14.83202534,"ECCENTRICITY":0.0013162,"INCLINATION":97.6462,"RA_OF_ASC_NODE":248.5676,"ARG_OF_PERICENTER":269.5122,"MEAN_ANOMALY":90.4584,"EPHEMERIS_TYPE":0,"CLASSIFICATION_TYPE":"U","NORAD_CAT_ID":40718,"ELEMENT_SET_NO":999,"REV_AT_EPOCH":57422,"BSTAR":0.00025958,"MEAN_MOTION_DOT":2.072e-5,"MEAN_MOTION_DDOT":0},{"OBJECT_NAME":"YAOGAN-27","OBJECT_ID":"2015-040A","EPOCH":"2026-03-07T03:51:13.156416","MEAN_MOTION":13.16067067,"ECCENTRICITY":0.0008922,"INCLINATION":100.1104,"RA_OF_ASC_NODE":56.9988,"ARG_OF_PERICENTER":89.6026,"MEAN_ANOMALY":270.611,"EPHEMERIS_TYPE":0,"CLASSIFICATION_TYPE":"U","NORAD_CAT_ID":40878,"ELEMENT_SET_NO":999,"REV_AT_EPOCH":50424,"BSTAR":0.00092389,"MEAN_MOTION_DOT":3.09e-6,"MEAN_MOTION_DDOT":0},{"OBJECT_NAME":"GAOFEN-9 01","OBJECT_ID":"2015-047A","EPOCH":"2026-03-07T03:57:03.835872","MEAN_MOTION":14.82672923,"ECCENTRICITY":0.0028836,"INCLINATION":97.6421,"RA_OF_ASC_NODE":106.4395,"ARG_OF_PERICENTER":113.7637,"MEAN_ANOMALY":246.6606,"EPHEMERIS_TYPE":0,"CLASSIFICATION_TYPE":"U","NORAD_CAT_ID":40894,"ELEMENT_SET_NO":999,"REV_AT_EPOCH":56507,"BSTAR":0.00017279,"MEAN_MOTION_DOT":1.352e-5,"MEAN_MOTION_DDOT":0},{"OBJECT_NAME":"YAOGAN-28","OBJECT_ID":"2015-064A","EPOCH":"2026-03-07T05:01:15.142656","MEAN_MOTION":15.2594642,"ECCENTRICITY":0.0010989,"INCLINATION":97.29,"RA_OF_ASC_NODE":206.7529,"ARG_OF_PERICENTER":185.1786,"MEAN_ANOMALY":174.9341,"EPHEMERIS_TYPE":0,"CLASSIFICATION_TYPE":"U","NORAD_CAT_ID":41026,"ELEMENT_SET_NO":999,"REV_AT_EPOCH":57512,"BSTAR":0.00042632,"MEAN_MOTION_DOT":0.00010897,"MEAN_MOTION_DDOT":0},{"OBJECT_NAME":"YAOGAN-29","OBJECT_ID":"2015-069A","EPOCH":"2026-03-07T03:54:48.722688","MEAN_MOTION":14.82992136,"ECCENTRICITY":0.000205,"INCLINATION":98.0141,"RA_OF_ASC_NODE":94.5854,"ARG_OF_PERICENTER":40.8375,"MEAN_ANOMALY":319.2992,"EPHEMERIS_TYPE":0,"CLASSIFICATION_TYPE":"U","NORAD_CAT_ID":41038,"ELEMENT_SET_NO":999,"REV_AT_EPOCH":55550,"BSTAR":9.781e-5,"MEAN_MOTION_DOT":7.4e-6,"MEAN_MOTION_DDOT":0}]
